{"type": "FeatureCollection", "features": [ {"type": "Feature", "properties": {"norad_id": 66777, "name": "TRANSPORTER-15 DR", "group": "last-30-days", "lat": 25.12762362127589, "lon": -108.44758930533375, "alt_km": 506.70839160619016, "timestamp": "2025-12-22T08:58:19.047179+00:00", "meta": {"OBJECT_NAME": "TRANSPORTER-15 DR", "OBJECT_ID": "2025-276DR", "EPOCH": "2025-12-22T01:58:10.766784", "MEAN_MOTION": 15.18895755, "ECCENTRICITY": 0.0003426, "INCLINATION": 97.4473, "RA_OF_ASC_NODE": 67.7475, "ARG_OF_PERICENTER": 114.4068, "MEAN_ANOMALY": 245.7524, "EPHEMERIS_TYPE": 0, "CLASSIFICATION_TYPE": "U", "NORAD_CAT_ID": 66777, "ELEMENT_SET_NO": 999, "REV_AT_EPOCH": 354, "BSTAR": 0.00069776, "MEAN_MOTION_DOT": 0.00014509, "MEAN_MOTION_DDOT": 0}, "tle": {"line1": "1 66777U 25276DR  25356.08206906  .00014509  00000+0  69776-3 0  9993", "line2": "2 66777  97.4473  67.7475 0003426 114.4068 245.7524 15.18895755  3549"}}, "geometry": {"type": "Point", "coordinates": [-108.44758930533375, 25.12762362127589]}}, {"type": "Feature", "properties": {"norad_id": 66791, "name": "STARLINK-35867", "group": "last-30-days", "lat": -42.70789388502618, "lon": 111.77556858456315, "alt_km": 406.7368309473168, "timestamp": "2025-12-22T08:58:19.047192+00:00", "meta": {"OBJECT_NAME": "STARLINK-35867", "OBJECT_ID": "2025-278A", "EPOCH": "2025-12-22T04:00:01.998720", "MEAN_MOTION": 15.55137883, "ECCENTRICITY": 0.0001243, "INCLINATION": 42.9991, "RA_OF_ASC_NODE": 195.1197, "ARG_OF_PERICENTER": 270.0512, "MEAN_ANOMALY": 285.0054, "EPHEMERIS_TYPE": 0, "CLASSIFICATION_TYPE": "U", "NORAD_CAT_ID": 66791, "ELEMENT_SET_NO": 999, "REV_AT_EPOCH": 447, "BSTAR": -0.033045, "MEAN_MOTION_DOT": -0.0204091, "MEAN_MOTION_DDOT": 0}, "tle": {"line1": "1 66791U 25278A   25356.16668980 -.02040910  00000+0 -33045-1 0  9991", "line2": "2 66791  42.9991 195.1197 0001243 270.0512 285.0054 15.55137883  4470"}}, "geometry": {"type": "Point", "coordinates": [111.77556858456315, -42.70789388502618]}}, {"type": "Feature", "properties": {"norad_id": 66792, "name": "STARLINK-35990", "group": "last-30-days", "lat": -42.50045534895212, "lon": 114.3578797078514, "alt_km": 406.699944283504, "timestamp": "2025-12-22T08:58:19.047204+00:00", "meta": {"OBJECT_NAME": "STARLINK-35990", "OBJECT_ID": "2025-278B", "EPOCH": "2025-12-22T04:00:01.998720", "MEAN_MOTION": 15.55139166, "ECCENTRICITY": 0.0001286, "INCLINATION": 42.9997, "RA_OF_ASC_NODE": 195.1155, "ARG_OF_PERICENTER": 270.1263, "MEAN_ANOMALY": 286.847, "EPHEMERIS_TYPE": 0, "CLASSIFICATION_TYPE": "U", "NORAD_CAT_ID": 66792, "ELEMENT_SET_NO": 999, "REV_AT_EPOCH": 447, "BSTAR": -0.033054, "MEAN_MOTION_DOT": -0.02041517, "MEAN_MOTION_DDOT": 0}, "tle": {"line1": "1 66792U 25278B   25356.16668980 -.02041517  00000+0 -33054-1 0  9996", "line2": "2 66792  42.9997 195.1155 0001286 270.1263 286.8470 15.55139166  4479"}}, "geometry": {"type": "Point", "coordinates": [114.3578797078514, -42.50045534895212]}}, {"type": "Feature", "properties": {"norad_id": 66793, "name": "STARLINK-36051", "group": "last-30-days", "lat": -41.91210731544145, "lon": 119.45816731005411, "alt_km": 406.749681666839, "timestamp": "2025-12-22T08:58:19.047215+00:00", "meta": {"OBJECT_NAME": "STARLINK-36051", "OBJECT_ID": "2025-278C", "EPOCH": "2025-12-22T04:00:01.998720", "MEAN_MOTION": 15.55140246, "ECCENTRICITY": 0.0001232, "INCLINATION": 42.9996, "RA_OF_ASC_NODE": 195.1058, "ARG_OF_PERICENTER": 264.3239, "MEAN_ANOMALY": 296.4824, "EPHEMERIS_TYPE": 0, "CLASSIFICATION_TYPE": "U", "NORAD_CAT_ID": 66793, "ELEMENT_SET_NO": 999, "REV_AT_EPOCH": 437, "BSTAR": -0.033096, "MEAN_MOTION_DOT": -0.02043835, "MEAN_MOTION_DDOT": 0}, "tle": {"line1": "1 66793U 25278C   25356.16668980 -.02043835  00000+0 -33096-1 0  9998", "line2": "2 66793  42.9996 195.1058 0001232 264.3239 296.4824 15.55140246  4370"}}, "geometry": {"type": "Point", "coordinates": [119.45816731005411, -41.91210731544145]}}, {"type": "Feature", "properties": {"norad_id": 66794, "name": "STARLINK-36062", "group": "last-30-days", "lat": -42.23486692762716, "lon": 116.9149257196475, "alt_km": 406.63611433866754, "timestamp": "2025-12-22T08:58:19.047225+00:00", "meta": {"OBJECT_NAME": "STARLINK-36062", "OBJECT_ID": "2025-278D", "EPOCH": "2025-12-22T04:00:01.998720", "MEAN_MOTION": 15.55145201, "ECCENTRICITY": 0.0001347, "INCLINATION": 42.9994, "RA_OF_ASC_NODE": 195.1098, "ARG_OF_PERICENTER": 273.2311, "MEAN_ANOMALY": 285.6543, "EPHEMERIS_TYPE": 0, "CLASSIFICATION_TYPE": "U", "NORAD_CAT_ID": 66794, "ELEMENT_SET_NO": 999, "REV_AT_EPOCH": 447, "BSTAR": -0.03317, "MEAN_MOTION_DOT": -0.02048323, "MEAN_MOTION_DDOT": 0}, "tle": {"line1": "1 66794U 25278D   25356.16668980 -.02048323  00000+0 -33170-1 0  9999", "line2": "2 66794  42.9994 195.1098 0001347 273.2311 285.6543 15.55145201  4475"}}, "geometry": {"type": "Point", "coordinates": [116.9149257196475, -42.23486692762716]}}, {"type": "Feature", "properties": {"norad_id": 66795, "name": "STARLINK-36047", "group": "last-30-days", "lat": -41.534313401866235, "lon": 121.96623091542287, "alt_km": 406.6182980439562, "timestamp": "2025-12-22T08:58:19.047237+00:00", "meta": {"OBJECT_NAME": "STARLINK-36047", "OBJECT_ID": "2025-278E", "EPOCH": "2025-12-22T04:00:01.998720", "MEAN_MOTION": 15.55141784, "ECCENTRICITY": 0.0001388, "INCLINATION": 42.9994, "RA_OF_ASC_NODE": 195.101, "ARG_OF_PERICENTER": 267.7839, "MEAN_ANOMALY": 294.9377, "EPHEMERIS_TYPE": 0, "CLASSIFICATION_TYPE": "U", "NORAD_CAT_ID": 66795, "ELEMENT_SET_NO": 999, "REV_AT_EPOCH": 437, "BSTAR": -0.033117, "MEAN_MOTION_DOT": -0.02045207, "MEAN_MOTION_DDOT": 0}, "tle": {"line1": "1 66795U 25278E   25356.16668980 -.02045207  00000+0 -33117-1 0  9999", "line2": "2 66795  42.9994 195.1010 0001388 267.7839 294.9377 15.55141784  4377"}}, "geometry": {"type": "Point", "coordinates": [121.96623091542287, -41.534313401866235]}}, {"type": "Feature", "properties": {"norad_id": 66796, "name": "STARLINK-35964", "group": "last-30-days", "lat": -20.19328196853526, "lon": 168.6927652729402, "alt_km": 328.77203216937323, "timestamp": "2025-12-22T08:58:19.047247+00:00", "meta": {"OBJECT_NAME": "STARLINK-35964", "OBJECT_ID": "2025-278F", "EPOCH": "2025-12-21T22:29:14.049024", "MEAN_MOTION": 15.80940684, "ECCENTRICITY": 0.0001645, "INCLINATION": 42.9913, "RA_OF_ASC_NODE": 194.6227, "ARG_OF_PERICENTER": 259.6877, "MEAN_ANOMALY": 100.3809, "EPHEMERIS_TYPE": 0, "CLASSIFICATION_TYPE": "U", "NORAD_CAT_ID": 66796, "ELEMENT_SET_NO": 999, "REV_AT_EPOCH": 330, "BSTAR": 0.0010755, "MEAN_MOTION_DOT": 0.00220482, "MEAN_MOTION_DDOT": 0}, "tle": {"line1": "1 66796U 25278F   25355.93696816  .00220482  00000+0  10755-2 0  9993", "line2": "2 66796  42.9913 194.6227 0001645 259.6877 100.3809 15.80940684  3307"}}, "geometry": {"type": "Point", "coordinates": [168.6927652729402, -20.19328196853526]}}, {"type": "Feature", "properties": {"norad_id": 66797, "name": "STARLINK-36099", "group": "last-30-days", "lat": -40.61759775884545, "lon": 126.89168641045978, "alt_km": 406.5333119543511, "timestamp": "2025-12-22T08:58:19.047257+00:00", "meta": {"OBJECT_NAME": "STARLINK-36099", "OBJECT_ID": "2025-278G", "EPOCH": "2025-12-22T04:00:01.998720", "MEAN_MOTION": 15.55142173, "ECCENTRICITY": 0.0001474, "INCLINATION": 42.9998, "RA_OF_ASC_NODE": 195.0912, "ARG_OF_PERICENTER": 270.0022, "MEAN_ANOMALY": 296.5561, "EPHEMERIS_TYPE": 0, "CLASSIFICATION_TYPE": "U", "NORAD_CAT_ID": 66797, "ELEMENT_SET_NO": 999, "REV_AT_EPOCH": 453, "BSTAR": -0.033179, "MEAN_MOTION_DOT": -0.02048735, "MEAN_MOTION_DDOT": 0}, "tle": {"line1": "1 66797U 25278G   25356.16668980 -.02048735  00000+0 -33179-1 0  9998", "line2": "2 66797  42.9998 195.0912 0001474 270.0022 296.5561 15.55142173  4534"}}, "geometry": {"type": "Point", "coordinates": [126.89168641045978, -40.61759775884545]}}, {"type": "Feature", "properties": {"norad_id": 66798, "name": "STARLINK-36041", "group": "last-30-days", "lat": -40.081821933369326, "lon": 129.29751538099043, "alt_km": 406.68263547369315, "timestamp": "2025-12-22T08:58:19.047269+00:00", "meta": {"OBJECT_NAME": "STARLINK-36041", "OBJECT_ID": "2025-278H", "EPOCH": "2025-12-22T04:00:01.998720", "MEAN_MOTION": 15.55142477, "ECCENTRICITY": 0.0001225, "INCLINATION": 42.9994, "RA_OF_ASC_NODE": 195.086, "ARG_OF_PERICENTER": 269.876, "MEAN_ANOMALY": 298.5988, "EPHEMERIS_TYPE": 0, "CLASSIFICATION_TYPE": "U", "NORAD_CAT_ID": 66798, "ELEMENT_SET_NO": 999, "REV_AT_EPOCH": 431, "BSTAR": -0.033153, "MEAN_MOTION_DOT": -0.02047118, "MEAN_MOTION_DDOT": 0}, "tle": {"line1": "1 66798U 25278H   25356.16668980 -.02047118  00000+0 -33153-1 0  9995", "line2": "2 66798  42.9994 195.0860 0001225 269.8760 298.5988 15.55142477  4310"}}, "geometry": {"type": "Point", "coordinates": [129.29751538099043, -40.081821933369326]}}, {"type": "Feature", "properties": {"norad_id": 66799, "name": "STARLINK-36044", "group": "last-30-days", "lat": -39.4958071239218, "lon": 131.6694277610423, "alt_km": 406.69624695528273, "timestamp": "2025-12-22T08:58:19.047280+00:00", "meta": {"OBJECT_NAME": "STARLINK-36044", "OBJECT_ID": "2025-278J", "EPOCH": "2025-12-22T04:00:01.998720", "MEAN_MOTION": 15.55142622, "ECCENTRICITY": 0.0001253, "INCLINATION": 42.999, "RA_OF_ASC_NODE": 195.0821, "ARG_OF_PERICENTER": 263.7207, "MEAN_ANOMALY": 306.6721, "EPHEMERIS_TYPE": 0, "CLASSIFICATION_TYPE": "U", "NORAD_CAT_ID": 66799, "ELEMENT_SET_NO": 999, "REV_AT_EPOCH": 447, "BSTAR": -0.03318, "MEAN_MOTION_DOT": -0.02048636, "MEAN_MOTION_DDOT": 0}, "tle": {"line1": "1 66799U 25278J   25356.16668980 -.02048636  00000+0 -33180-1 0  9992", "line2": "2 66799  42.9990 195.0821 0001253 263.7207 306.6721 15.55142622  4479"}}, "geometry": {"type": "Point", "coordinates": [131.6694277610423, -39.4958071239218]}}]}